{
  "norad_id": 57115,
  "name": "STARLINK-6085",
  "history": [
    {
      "epoch": "2026-03-28T20:58:30.614016Z",
      "apogee_km": 538.1968252979505,
      "perigee_km": 510.26983494228443,
      "latitude_deg": 1.1455410058638532e-05,
      "longitude_deg": 16.402998255665374,
      "height_km": 512.7939275787435,
      "semi_major_axis_km": 6902.370330120117,
      "eccentricity": 0.002023,
      "inclination_deg": 42.9985,
      "raan_deg": 157.3187,
      "arg_perigee_deg": 323.4668,
      "mean_anomaly_deg": 36.4798,
      "mean_motion_rev_day": 15.13928543
    }
  ]
}